{"type": "FeatureCollection", "features": [ {"type": "Feature", "properties": {"norad_id": 43623, "name": "BEIDOU-3 M14 (C33)", "group": "beidou", "lat": -32.12897307858912, "lon": 44.55551108705524, "alt_km": 21523.944426661994, "timestamp": "2025-12-02T19:35:50.821210+00:00", "meta": {"OBJECT_NAME": "BEIDOU-3 M14 (C33)", "OBJECT_ID": "2018-072B", "EPOCH": "2025-12-01T19:14:30.937344", "MEAN_MOTION": 1.86230707, "ECCENTRICITY": 0.0003049, "INCLINATION": 56.4513, "RA_OF_ASC_NODE": 69.1766, "ARG_OF_PERICENTER": 335.7773, "MEAN_ANOMALY": 24.2115, "EPHEMERIS_TYPE": 0, "CLASSIFICATION_TYPE": "U", "NORAD_CAT_ID": 43623, "ELEMENT_SET_NO": 999, "REV_AT_EPOCH": 4897, "BSTAR": 0, "MEAN_MOTION_DOT": -4.3e-07, "MEAN_MOTION_DDOT": 0}, "tle": {"line1": "1 43623U 18072B   25335.80174696 -.00000043  00000+0  00000+0 0  9991", "line2": "2 43623  56.4513  69.1766 0003049 335.7773  24.2115  1.86230707 48977"}}, "geometry": {"type": "Point", "coordinates": [44.55551108705524, -32.12897307858912]}}, {"type": "Feature", "properties": {"norad_id": 43647, "name": "BEIDOU-3 M16 (C35)", "group": "beidou", "lat": -27.380973459723958, "lon": 148.72830253804867, "alt_km": 21550.04624920185, "timestamp": "2025-12-02T19:35:50.821222+00:00", "meta": {"OBJECT_NAME": "BEIDOU-3 M16 (C35)", "OBJECT_ID": "2018-078A", "EPOCH": "2025-12-01T23:02:01.408992", "MEAN_MOTION": 1.86232129, "ECCENTRICITY": 0.00069466, "INCLINATION": 54.272, "RA_OF_ASC_NODE": 306.8982, "ARG_OF_PERICENTER": 18.3506, "MEAN_ANOMALY": 341.6639, "EPHEMERIS_TYPE": 0, "CLASSIFICATION_TYPE": "U", "NORAD_CAT_ID": 43647, "ELEMENT_SET_NO": 999, "REV_AT_EPOCH": 4848, "BSTAR": 0, "MEAN_MOTION_DOT": -6.1e-07, "MEAN_MOTION_DDOT": 0}, "tle": {"line1": "1 43647U 18078A   25335.95973853 -.00000061  00000+0  00000+0 0  9991", "line2": "2 43647  54.2720 306.8982 0006946  18.3506 341.6639  1.86232129 48480"}}, "geometry": {"type": "Point", "coordinates": [148.72830253804867, -27.380973459723958]}}, {"type": "Feature", "properties": {"norad_id": 43648, "name": "BEIDOU-3 M15 (C34)", "group": "beidou", "lat": 39.81244527561392, "lon": 89.99000353249829, "alt_km": 21526.630942326705, "timestamp": "2025-12-02T19:35:50.821233+00:00", "meta": {"OBJECT_NAME": "BEIDOU-3 M15 (C34)", "OBJECT_ID": "2018-078B", "EPOCH": "2025-12-01T00:21:40.976640", "MEAN_MOTION": 1.86232, "ECCENTRICITY": 0.0003569, "INCLINATION": 54.2686, "RA_OF_ASC_NODE": 306.9322, "ARG_OF_PERICENTER": 17.0419, "MEAN_ANOMALY": 342.9634, "EPHEMERIS_TYPE": 0, "CLASSIFICATION_TYPE": "U", "NORAD_CAT_ID": 43648, "ELEMENT_SET_NO": 999, "REV_AT_EPOCH": 4848, "BSTAR": 0, "MEAN_MOTION_DOT": -5.6e-07, "MEAN_MOTION_DDOT": 0}, "tle": {"line1": "1 43648U 18078B   25335.01505760 -.00000056  00000+0  00000+0 0  9991", "line2": "2 43648  54.2686 306.9322 0003569  17.0419 342.9634  1.86232000 48485"}}, "geometry": {"type": "Point", "coordinates": [89.99000353249829, 39.81244527561392]}}, {"type": "Feature", "properties": {"norad_id": 43683, "name": "BEIDOU-3 G1 (C59)", "group": "beidou", "lat": 1.7433535660304553, "lon": 145.84808495082135, "alt_km": 35776.887477280114, "timestamp": "2025-12-02T19:35:50.821245+00:00", "meta": {"OBJECT_NAME": "BEIDOU-3 G1 (C59)", "OBJECT_ID": "2018-085A", "EPOCH": "2025-12-02T07:36:08.057952", "MEAN_MOTION": 1.00274107, "ECCENTRICITY": 0.0002114, "INCLINATION": 2.5793, "RA_OF_ASC_NODE": 103.2849, "ARG_OF_PERICENTER": 61.7211, "MEAN_ANOMALY": 160.4779, "EPHEMERIS_TYPE": 0, "CLASSIFICATION_TYPE": "U", "NORAD_CAT_ID": 43683, "ELEMENT_SET_NO": 999, "REV_AT_EPOCH": 2608, "BSTAR": 0, "MEAN_MOTION_DOT": -2.56e-06, "MEAN_MOTION_DDOT": 0}, "tle": {"line1": "1 43683U 18085A   25336.31675993 -.00000256  00000+0  00000+0 0  9990", "line2": "2 43683   2.5793 103.2849 0002114  61.7211 160.4779  1.00274107 26087"}}, "geometry": {"type": "Point", "coordinates": [145.84808495082135, 1.7433535660304553]}}, {"type": "Feature", "properties": {"norad_id": 43706, "name": "BEIDOU-3 M17 (C36)", "group": "beidou", "lat": 17.373973591361317, "lon": -157.9694447412766, "alt_km": 21521.839821944945, "timestamp": "2025-12-02T19:35:50.821257+00:00", "meta": {"OBJECT_NAME": "BEIDOU-3 M17 (C36)", "OBJECT_ID": "2018-093A", "EPOCH": "2025-11-30T05:23:59.265600", "MEAN_MOTION": 1.86228182, "ECCENTRICITY": 0.00063751, "INCLINATION": 54.1727, "RA_OF_ASC_NODE": 189.0472, "ARG_OF_PERICENTER": 306.0351, "MEAN_ANOMALY": 138.1008, "EPHEMERIS_TYPE": 0, "CLASSIFICATION_TYPE": "U", "NORAD_CAT_ID": 43706, "ELEMENT_SET_NO": 999, "REV_AT_EPOCH": 4783, "BSTAR": 0, "MEAN_MOTION_DOT": 1.11e-06, "MEAN_MOTION_DDOT": 0}, "tle": {"line1": "1 43706U 18093A   25334.22499150  .00000111  00000+0  00000+0 0  9991", "line2": "2 43706  54.1727 189.0472 0006375 306.0351 138.1008  1.86228182 47839"}}, "geometry": {"type": "Point", "coordinates": [-157.9694447412766, 17.373973591361317]}}, {"type": "Feature", "properties": {"norad_id": 43707, "name": "BEIDOU-3 M18 (C37)", "group": "beidou", "lat": 47.48549867106353, "lon": -43.0296808162152, "alt_km": 21532.630689600435, "timestamp": "2025-12-02T19:35:50.821268+00:00", "meta": {"OBJECT_NAME": "BEIDOU-3 M18 (C37)", "OBJECT_ID": "2018-093B", "EPOCH": "2025-12-02T02:36:40.524768", "MEAN_MOTION": 1.86226401, "ECCENTRICITY": 0.0006357, "INCLINATION": 54.1734, "RA_OF_ASC_NODE": 188.975, "ARG_OF_PERICENTER": 350.835, "MEAN_ANOMALY": 9.249, "EPHEMERIS_TYPE": 0, "CLASSIFICATION_TYPE": "U", "NORAD_CAT_ID": 43707, "ELEMENT_SET_NO": 999, "REV_AT_EPOCH": 4786, "BSTAR": 0, "MEAN_MOTION_DOT": 1.21e-06, "MEAN_MOTION_DDOT": 0}, "tle": {"line1": "1 43707U 18093B   25336.10880237  .00000121  00000+0  00000+0 0  9992", "line2": "2 43707  54.1734 188.9750 0006357 350.8350   9.2490  1.86226401 47869"}}, "geometry": {"type": "Point", "coordinates": [-43.0296808162152, 47.48549867106353]}}, {"type": "Feature", "properties": {"norad_id": 44204, "name": "BEIDOU-3 IGSO-1 (C38)", "group": "beidou", "lat": 57.08196427001383, "lon": 111.2272456019533, "alt_km": 35875.746061970305, "timestamp": "2025-12-02T19:35:50.821280+00:00", "meta": {"OBJECT_NAME": "BEIDOU-3 IGSO-1 (C38)", "OBJECT_ID": "2019-023A", "EPOCH": "2025-11-19T14:15:02.708640", "MEAN_MOTION": 1.00252177, "ECCENTRICITY": 0.0026966, "INCLINATION": 58.4003, "RA_OF_ASC_NODE": 39.8168, "ARG_OF_PERICENTER": 221.2202, "MEAN_ANOMALY": 126.9723, "EPHEMERIS_TYPE": 0, "CLASSIFICATION_TYPE": "U", "NORAD_CAT_ID": 44204, "ELEMENT_SET_NO": 999, "REV_AT_EPOCH": 510, "BSTAR": 0, "MEAN_MOTION_DOT": -2.26e-06, "MEAN_MOTION_DDOT": 0}, "tle": {"line1": "1 44204U 19023A   25323.59378135 -.00000226  00000+0  00000+0 0  9994", "line2": "2 44204  58.4003  39.8168 0026966 221.2202 126.9723  1.00252177  5102"}}, "geometry": {"type": "Point", "coordinates": [111.2272456019533, 57.08196427001383]}}, {"type": "Feature", "properties": {"norad_id": 44231, "name": "BEIDOU-2 G8 (C01)", "group": "beidou", "lat": 1.5782308819896587, "lon": 150.41982155259652, "alt_km": 35820.83819215975, "timestamp": "2025-12-02T19:35:50.821294+00:00", "meta": {"OBJECT_NAME": "BEIDOU-2 G8 (C01)", "OBJECT_ID": "2019-027A", "EPOCH": "2025-12-02T11:21:38.666880", "MEAN_MOTION": 1.002705, "ECCENTRICITY": 0.0008241, "INCLINATION": 1.6338, "RA_OF_ASC_NODE": 74.6927, "ARG_OF_PERICENTER": 254.9742, "MEAN_ANOMALY": 56.8972, "EPHEMERIS_TYPE": 0, "CLASSIFICATION_TYPE": "U", "NORAD_CAT_ID": 44231, "ELEMENT_SET_NO": 999, "REV_AT_EPOCH": 2410, "BSTAR": 0, "MEAN_MOTION_DOT": -2.27e-06, "MEAN_MOTION_DDOT": 0}, "tle": {"line1": "1 44231U 19027A   25336.47336420 -.00000227  00000+0  00000+0 0  9991", "line2": "2 44231   1.6338  74.6927 0008241 254.9742  56.8972  1.00270500 24109"}}, "geometry": {"type": "Point", "coordinates": [150.41982155259652, 1.5782308819896587]}}, {"type": "Feature", "properties": {"norad_id": 44337, "name": "BEIDOU-3 IGSO-2 (C39)", "group": "beidou", "lat": -27.983504020133154, "lon": 138.87891286998266, "alt_km": 35874.888103109646, "timestamp": "2025-12-02T19:35:50.821306+00:00", "meta": {"OBJECT_NAME": "BEIDOU-3 IGSO-2 (C39)", "OBJECT_ID": "2019-035A", "EPOCH": "2025-12-01T05:17:49.661952", "MEAN_MOTION": 1.00274502, "ECCENTRICITY": 0.00376064, "INCLINATION": 55.2223, "RA_OF_ASC_NODE": 160.6035, "ARG_OF_PERICENTER": 202.2564, "MEAN_ANOMALY": 266.4761, "EPHEMERIS_TYPE": 0, "CLASSIFICATION_TYPE": "U", "NORAD_CAT_ID": 44337, "ELEMENT_SET_NO": 999, "REV_AT_EPOCH": 2368, "BSTAR": 0, "MEAN_MOTION_DOT": -2.5e-07, "MEAN_MOTION_DDOT": 0}, "tle": {"line1": "1 44337U 19035A   25335.22071368 -.00000025  00000+0  00000+0 0  9992", "line2": "2 44337  55.2223 160.6035 0037606 202.2564 266.4761  1.00274502 23688"}}, "geometry": {"type": "Point", "coordinates": [138.87891286998266, -27.983504020133154]}}, {"type": "Feature", "properties": {"norad_id": 44542, "name": "BEIDOU-3 M24 (C46)", "group": "beidou", "lat": 48.402988818773466, "lon": -116.84565013684485, "alt_km": 21502.98397479674, "timestamp": "2025-12-02T19:35:50.821317+00:00", "meta": {"OBJECT_NAME": "BEIDOU-3 M24 (C46)", "OBJECT_ID": "2019-061A", "EPOCH": "2025-12-01T02:32:46.252896", "MEAN_MOTION": 1.86229258, "ECCENTRICITY": 0.00095598, "INCLINATION": 54.4002, "RA_OF_ASC_NODE": 189.409, "ARG_OF_PERICENTER": 23.5384, "MEAN_ANOMALY": 336.5991, "EPHEMERIS_TYPE": 0, "CLASSIFICATION_TYPE": "U", "NORAD_CAT_ID": 44542, "ELEMENT_SET_NO": 999, "REV_AT_EPOCH": 4210, "BSTAR": 0, "MEAN_MOTION_DOT": 1.18e-06, "MEAN_MOTION_DDOT": 0}, "tle": {"line1": "1 44542U 19061A   25335.10609089  .00000118  00000+0  00000+0 0  9995", "line2": "2 44542  54.4002 189.4090 0009559  23.5384 336.5991  1.86229258 42106"}}, "geometry": {"type": "Point", "coordinates": [-116.84565013684485, 48.402988818773466]}}]}